CCSDS_OMM_VERS = 2.0
CREATION_DATE  = 
ORIGINATOR     = 

OBJECT_NAME    = SL-16 R/B
OBJECT_ID      = 1998-045B
CENTER_NAME    = EARTH
REF_FRAME      = TEME
TIME_SYSTEM    = UTC
MEAN_ELEMENT_THEORY = SGP/SGP4

EPOCH          = 2026-03-30T04:45:05.749344
MEAN_MOTION    = 14.16193600
ECCENTRICITY   = .0008033
INCLINATION    = 71.0098
RA_OF_ASC_NODE = 138.4483
ARG_OF_PERICENTER = 336.8390
MEAN_ANOMALY   = 23.2370

EPHEMERIS_TYPE = 0
CLASSIFICATION_TYPE = U
NORAD_CAT_ID   = 25407
ELEMENT_SET_NO = 999
REV_AT_EPOCH   = 43000
BSTAR          = -.80667E-4
MEAN_MOTION_DOT = -.208E-5
MEAN_MOTION_DDOT = 0

CCSDS_OMM_VERS = 2.0
CREATION_DATE  = 
ORIGINATOR     = 

OBJECT_NAME    = ISS (ZARYA)
OBJECT_ID      = 1998-067A
CENTER_NAME    = EARTH
REF_FRAME      = TEME
TIME_SYSTEM    = UTC
MEAN_ELEMENT_THEORY = SGP/SGP4

EPOCH          = 2026-03-30T03:57:49.771296
MEAN_MOTION    = 15.48649502
ECCENTRICITY   = .0006182
INCLINATION    = 51.6344
RA_OF_ASC_NODE = 331.1363
ARG_OF_PERICENTER = 249.8594
MEAN_ANOMALY   = 110.1729

EPHEMERIS_TYPE = 0
CLASSIFICATION_TYPE = U
NORAD_CAT_ID   = 25544
ELEMENT_SET_NO = 999
REV_AT_EPOCH   = 55950
BSTAR          = .23377E-3
MEAN_MOTION_DOT = .12299E-3
MEAN_MOTION_DDOT = 0

CCSDS_OMM_VERS = 2.0
CREATION_DATE  = 
ORIGINATOR     = 

OBJECT_NAME    = CZ-4B R/B
OBJECT_ID      = 1999-025C
CENTER_NAME    = EARTH
REF_FRAME      = TEME
TIME_SYSTEM    = UTC
MEAN_ELEMENT_THEORY = SGP/SGP4

EPOCH          = 2026-03-30T02:48:15.549696
MEAN_MOTION    = 14.18269307
ECCENTRICITY   = .0036007
INCLINATION    = 98.6585
RA_OF_ASC_NODE = 132.9108
ARG_OF_PERICENTER = 286.5580
MEAN_ANOMALY   = 95.7440

EPHEMERIS_TYPE = 0
CLASSIFICATION_TYPE = U
NORAD_CAT_ID   = 25732
ELEMENT_SET_NO = 999
REV_AT_EPOCH   = 39106
BSTAR          = .48193E-4
MEAN_MOTION_DOT = .56E-6
MEAN_MOTION_DDOT = 0

CCSDS_OMM_VERS = 2.0
CREATION_DATE  = 
ORIGINATOR     = 

OBJECT_NAME    = OKEAN-O
OBJECT_ID      = 1999-039A
CENTER_NAME    = EARTH
REF_FRAME      = TEME
TIME_SYSTEM    = UTC
MEAN_ELEMENT_THEORY = SGP/SGP4

EPOCH          = 2026-03-30T03:10:51.768768
MEAN_MOTION    = 14.80368497
ECCENTRICITY   = .0000856
INCLINATION    = 97.9400
RA_OF_ASC_NODE = 148.8120
ARG_OF_PERICENTER = 94.8275
MEAN_ANOMALY   = 265.3035

EPHEMERIS_TYPE = 0
CLASSIFICATION_TYPE = U
NORAD_CAT_ID   = 25860
ELEMENT_SET_NO = 999
REV_AT_EPOCH   = 43741
BSTAR          = .12079E-3
MEAN_MOTION_DOT = .87E-5
MEAN_MOTION_DDOT = 0

CCSDS_OMM_VERS = 2.0
CREATION_DATE  = 
ORIGINATOR     = 

OBJECT_NAME    = SL-16 R/B
OBJECT_ID      = 1999-039B
CENTER_NAME    = EARTH
REF_FRAME      = TEME
TIME_SYSTEM    = UTC
MEAN_ELEMENT_THEORY = SGP/SGP4

EPOCH          = 2026-03-30T03:51:27.268128
MEAN_MOTION    = 14.81759692
ECCENTRICITY   = .001466
INCLINATION    = 97.9921
RA_OF_ASC_NODE = 148.2224
ARG_OF_PERICENTER = 185.8471
MEAN_ANOMALY   = 174.2573

EPHEMERIS_TYPE = 0
CLASSIFICATION_TYPE = U
NORAD_CAT_ID   = 25861
ELEMENT_SET_NO = 999
REV_AT_EPOCH   = 43989
BSTAR          = .1016E-3
MEAN_MOTION_DOT = .749E-5
MEAN_MOTION_DDOT = 0

CCSDS_OMM_VERS = 2.0
CREATION_DATE  = 
ORIGINATOR     = 

OBJECT_NAME    = DELTA 2 R/B
OBJECT_ID      = 1999-041E
CENTER_NAME    = EARTH
REF_FRAME      = TEME
TIME_SYSTEM    = UTC
MEAN_ELEMENT_THEORY = SGP/SGP4

EPOCH          = 2026-03-30T01:00:24.634656
MEAN_MOTION    = 14.11884377
ECCENTRICITY   = .0502658
INCLINATION    = 51.7607
RA_OF_ASC_NODE = 219.9784
ARG_OF_PERICENTER = 48.4500
MEAN_ANOMALY   = 315.8423

EPHEMERIS_TYPE = 0
CLASSIFICATION_TYPE = U
NORAD_CAT_ID   = 25876
ELEMENT_SET_NO = 999
REV_AT_EPOCH   = 36590
BSTAR          = .21979E-3
MEAN_MOTION_DOT = .1123E-4
MEAN_MOTION_DDOT = 0

CCSDS_OMM_VERS = 2.0
CREATION_DATE  = 
ORIGINATOR     = 

OBJECT_NAME    = HELIOS 1B
OBJECT_ID      = 1999-064A
CENTER_NAME    = EARTH
REF_FRAME      = TEME
TIME_SYSTEM    = UTC
MEAN_ELEMENT_THEORY = SGP/SGP4

EPOCH          = 2026-03-30T03:50:24.046656
MEAN_MOTION    = 14.87777269
ECCENTRICITY   = .0001745
INCLINATION    = 98.1673
RA_OF_ASC_NODE = 352.0029
ARG_OF_PERICENTER = 47.3539
MEAN_ANOMALY   = 312.7823

EPHEMERIS_TYPE = 0
CLASSIFICATION_TYPE = U
NORAD_CAT_ID   = 25977
ELEMENT_SET_NO = 999
REV_AT_EPOCH   = 68830
BSTAR          = .23706E-3
MEAN_MOTION_DOT = .2105E-4
MEAN_MOTION_DDOT = 0

CCSDS_OMM_VERS = 2.0
CREATION_DATE  = 
ORIGINATOR     = 

OBJECT_NAME    = TERRA
OBJECT_ID      = 1999-068A
CENTER_NAME    = EARTH
REF_FRAME      = TEME
TIME_SYSTEM    = UTC
MEAN_ELEMENT_THEORY = SGP/SGP4

EPOCH          = 2026-03-30T04:45:41.916384
MEAN_MOTION    = 14.61036640
ECCENTRICITY   = .0003594
INCLINATION    = 97.9549
RA_OF_ASC_NODE = 141.8453
ARG_OF_PERICENTER = 108.9557
MEAN_ANOMALY   = 342.9004

EPHEMERIS_TYPE = 0
CLASSIFICATION_TYPE = U
NORAD_CAT_ID   = 25994
ELEMENT_SET_NO = 999
REV_AT_EPOCH   = 39807
BSTAR          = .12633E-3
MEAN_MOTION_DOT = .576E-5
MEAN_MOTION_DDOT = 0

CCSDS_OMM_VERS = 2.0
CREATION_DATE  = 
ORIGINATOR     = 

OBJECT_NAME    = SL-16 R/B
OBJECT_ID      = 2000-006B
CENTER_NAME    = EARTH
REF_FRAME      = TEME
TIME_SYSTEM    = UTC
MEAN_ELEMENT_THEORY = SGP/SGP4

EPOCH          = 2026-03-30T03:33:16.996896
MEAN_MOTION    = 14.15828223
ECCENTRICITY   = .0015632
INCLINATION    = 71.0025
RA_OF_ASC_NODE = 54.8162
ARG_OF_PERICENTER = 157.8149
MEAN_ANOMALY   = 202.3653

EPHEMERIS_TYPE = 0
CLASSIFICATION_TYPE = U
NORAD_CAT_ID   = 26070
ELEMENT_SET_NO = 999
REV_AT_EPOCH   = 35145
BSTAR          = .1864E-3
MEAN_MOTION_DOT = .319E-5
MEAN_MOTION_DDOT = 0

CCSDS_OMM_VERS = 2.0
CREATION_DATE  = 
ORIGINATOR     = 

OBJECT_NAME    = TITAN 4B R/B
OBJECT_ID      = 2000-047B
CENTER_NAME    = EARTH
REF_FRAME      = TEME
TIME_SYSTEM    = UTC
MEAN_ELEMENT_THEORY = SGP/SGP4

EPOCH          = 2026-03-30T04:03:16.443648
MEAN_MOTION    = 15.09752161
ECCENTRICITY   = .0039865
INCLINATION    = 67.9917
RA_OF_ASC_NODE = 342.9173
ARG_OF_PERICENTER = 11.3871
MEAN_ANOMALY   = 348.8170

EPHEMERIS_TYPE = 0
CLASSIFICATION_TYPE = U
NORAD_CAT_ID   = 26474
ELEMENT_SET_NO = 999
REV_AT_EPOCH   = 39600
BSTAR          = .31932E-3
MEAN_MOTION_DOT = .5128E-4
MEAN_MOTION_DDOT = 0

CCSDS_OMM_VERS = 2.0
CREATION_DATE  = 
ORIGINATOR     = 

OBJECT_NAME    = ENVISAT
OBJECT_ID      = 2002-009A
CENTER_NAME    = EARTH
REF_FRAME      = TEME
TIME_SYSTEM    = UTC
MEAN_ELEMENT_THEORY = SGP/SGP4

EPOCH          = 2026-03-30T02:43:59.436768
MEAN_MOTION    = 14.39044031
ECCENTRICITY   = .0001211
INCLINATION    = 98.3761
RA_OF_ASC_NODE = 42.2291
ARG_OF_PERICENTER = 81.8079
MEAN_ANOMALY   = 288.6685

EPHEMERIS_TYPE = 0
CLASSIFICATION_TYPE = U
NORAD_CAT_ID   = 27386
ELEMENT_SET_NO = 999
REV_AT_EPOCH   = 26211
BSTAR          = .59965E-4
MEAN_MOTION_DOT = .142E-5
MEAN_MOTION_DDOT = 0

CCSDS_OMM_VERS = 2.0
CREATION_DATE  = 
ORIGINATOR     = 

OBJECT_NAME    = IDEFIX & ARIANE 42P R/B
OBJECT_ID      = 2002-021B
CENTER_NAME    = EARTH
REF_FRAME      = TEME
TIME_SYSTEM    = UTC
MEAN_ELEMENT_THEORY = SGP/SGP4

EPOCH          = 2026-03-30T01:15:12.936384
MEAN_MOTION    = 14.31039901
ECCENTRICITY   = .0012641
INCLINATION    = 98.5893
RA_OF_ASC_NODE = 27.4179
ARG_OF_PERICENTER = 124.2025
MEAN_ANOMALY   = 236.0358

EPHEMERIS_TYPE = 0
CLASSIFICATION_TYPE = U
NORAD_CAT_ID   = 27422
ELEMENT_SET_NO = 999
REV_AT_EPOCH   = 24693
BSTAR          = .14104E-3
MEAN_MOTION_DOT = .328E-5
MEAN_MOTION_DDOT = 0

